NORAD_CAT_ID,OBJECT_NAME,OBJECT_TYPE,EPOCH,MEAN_MOTION,ECCENTRICITY,INCLINATION,RA_OF_ASC_NODE,ARG_OF_PERICENTER,MEAN_ANOMALY,BSTAR,MEAN_MOTION_DOT,MEAN_MOTION_DDOT,TLE_LINE0,TLE_LINE1,TLE_LINE2,SEMIMAJOR_AXIS,PERIOD,APOGEE,PERIGEE,DECAYED
54172.0,STARLINK-5117,PAYLOAD,2023-04-25 02:05:07,15.08880496,0.0002791,53.2169,35.9438,132.4836,227.6448,0.00054665,8.432e-05,0.0,0 STARLINK-5117,1 54172U 22141R   23115.08689689  .00008432  00000-0  54665-3 0  9991,2 54172  53.2169  35.9438 0002791 132.4836 227.6448 15.08880496 27400,6917.757,95.435,541.552,537.691,0.0
54172.0,STARLINK-5117,PAYLOAD,2023-04-26 00:20:33,15.08849833,0.001022,53.1978,31.7579,120.8294,239.3705,0.0001,1.302e-05,0.0,0 STARLINK-5117,1 54172U 22141R   23116.01427219  .00001302  00000-0  10000-3 0  9998,2 54172  53.1978  31.7579 0010220 120.8294 239.3705 15.08849833 27543,6917.85,95.437,546.785,532.645,0.0
54172.0,STARLINK-5117,PAYLOAD,2023-04-27 04:57:35,15.08792037,0.0008061,53.2216,26.4229,177.3699,182.9325,0.0001,1.3e-05,0.0,0 STARLINK-5117,1 54172U 22141R   23117.20666619  .00001300  00000-0  10000-3 0  9997,2 54172  53.2216  26.4229 0008061 177.3699 182.9325 15.08792037 27722,6918.027,95.441,545.469,534.315,0.0
54172.0,STARLINK-5117,PAYLOAD,2023-04-27 14:29:51,15.08843795,0.0002281,53.2225,24.633,173.4189,186.6859,0.00092064,0.00014396,0.0,0 STARLINK-5117,1 54172U 22141R   23117.60406266  .00014396  00000-0  92064-3 0  9990,2 54172  53.2225  24.6330 0002281 173.4189 186.6859 15.08843795 27781,6917.869,95.437,541.312,538.156,0.0
54172.0,STARLINK-5117,PAYLOAD,2023-04-27 16:00:00,15.08845692,0.0001192,53.2159,24.3648,108.6268,231.7588,0.0038357,0.00061298,0.0,0 STARLINK-5117,1 54172U 22141R   23117.66667824  .00061298  00000-0  38357-2 0  9992,2 54172  53.2159  24.3648 0001192 108.6268 231.7588 15.08845692 27783,6917.863,95.437,540.553,538.903,0.0
54172.0,STARLINK-5117,PAYLOAD,2023-04-29 04:38:57,15.08843523,0.0001824,53.215,17.508,112.4572,247.1694,0.0001,1.304e-05,0.0,0 STARLINK-5117,1 54172U 22141R   23119.19372559  .00001304  00000-0  10000-3 0  9998,2 54172  53.2150  17.5080 0001824 112.4572 247.1694 15.08843523 28029,6917.87,95.437,540.996,538.473,0.0
54172.0,STARLINK-5117,PAYLOAD,2023-04-29 17:22:10,15.08821221,0.0001824,53.215,15.128,113.9861,246.1093,0.0001,1.303e-05,0.0,0 STARLINK-5117,1 54172U 22141R   23119.72373385  .00001303  00000-0  10000-3 0  9994,2 54172  53.2150  15.1280 0001824 113.9861 246.1093 15.08821221 28104,6917.938,95.439,541.065,538.541,0.0
54172.0,STARLINK-5117,PAYLOAD,2023-04-30 15:37:35,15.08841611,0.0001661,53.2192,10.9679,94.1542,266.0204,4.2182e-05,3.83e-06,0.0,0 STARLINK-5117,1 54172U 22141R   23120.65110747  .00000383  00000-0  42182-4 0  9993,2 54172  53.2192  10.9679 0001661  94.1542 266.0204 15.08841611 28245,6917.875,95.437,540.89,538.591,0.0
54172.0,STARLINK-5117,PAYLOAD,2023-05-01 02:45:16,15.08841115,0.0001626,53.2193,8.8864,99.998,260.1196,3.5082e-05,2.7e-06,0.0,0 STARLINK-5117,1 54172U 22141R   23121.11477726  .00000270  00000-0  35082-4 0  9994,2 54172  53.2193   8.8864 0001626  99.9980 260.1196 15.08841115 28310,6917.877,95.437,540.867,538.617,0.0
54172.0,STARLINK-5117,PAYLOAD,2023-05-01 21:49:54,15.08840791,0.000157,53.2194,5.3175,101.2481,258.8692,2.6514e-05,1.34e-06,0.0,0 STARLINK-5117,1 54172U 22141R   23121.90965748  .00000134  00000-0  26514-4 0  9996,2 54172  53.2194   5.3175 0001570 101.2481 258.8692 15.08840791 28436,6917.878,95.438,540.829,538.657,0.0
54172.0,STARLINK-5117,PAYLOAD,2023-05-02 02:36:03,15.08841075,0.0001586,53.2194,4.4253,100.5398,259.5776,2.7344e-05,1.47e-06,0.0,0 STARLINK-5117,1 54172U 22141R   23122.10837709  .00000147  00000-0  27344-4 0  9990,2 54172  53.2194   4.4253 0001586 100.5398 259.5776 15.08841075 28469,6917.877,95.437,540.839,538.645,0.0
54172.0,STARLINK-5117,PAYLOAD,2023-05-02 23:16:04,15.08841629,0.0001547,53.2194,0.5587,103.349,256.7675,2.5918e-05,1.25e-06,0.0,0 STARLINK-5117,1 54172U 22141R   23122.96949554  .00000125  00000-0  25918-4 0  9997,2 54172  53.2194   0.5587 0001547 103.3490 256.7675 15.08841629 28593,6917.875,95.437,540.811,538.67,0.0
54172.0,STARLINK-5117,PAYLOAD,2023-05-03 02:26:50,15.08841682,0.0001524,53.2195,359.9642,103.4459,256.6709,2.5468e-05,1.17e-06,0.0,0 STARLINK-5117,1 54172U 22141R   23123.10197548  .00000117  00000-0  25468-4 0  9993,2 54172  53.2195 359.9642 0001524 103.4459 256.6709 15.08841682 28617,6917.875,95.437,540.795,538.686,0.0
54172.0,STARLINK-5117,PAYLOAD,2023-05-03 15:09:55,15.08842039,0.0001559,53.2195,357.5846,100.4415,259.6749,2.4839e-05,1.07e-06,0.0,0 STARLINK-5117,1 54172U 22141R   23123.63189458  .00000107  00000-0  24839-4 0  9992,2 54172  53.2195 357.5846 0001559 100.4415 259.6749 15.08842039 28696,6917.874,95.437,540.818,538.661,0.0
54172.0,STARLINK-5117,PAYLOAD,2023-05-03 23:06:51,15.08842447,0.0001653,53.2194,356.098,94.5664,265.5518,2.6093e-05,1.27e-06,0.0,0 STARLINK-5117,1 54172U 22141R   23123.96309436  .00000127  00000-0  26093-4 0  9994,2 54172  53.2194 356.0980 0001653  94.5664 265.5518 15.08842447 28741,6917.873,95.437,540.881,538.594,0.0
54172.0,STARLINK-5117,PAYLOAD,2023-05-04 15:00:42,15.08843035,0.0001706,53.2194,353.124,95.9203,264.1978,2.6219e-05,1.29e-06,0.0,0 STARLINK-5117,1 54172U 22141R   23124.62549248  .00000129  00000-0  26219-4 0  9997,2 54172  53.2194 353.1240 0001706  95.9203 264.1978 15.08843035 28841,6917.871,95.437,540.916,538.556,0.0
54172.0,STARLINK-5117,PAYLOAD,2023-05-04 21:22:15,15.08840409,0.0001053,53.2157,351.936,87.3145,272.7967,3.7335e-06,-2.28e-06,0.0,0 STARLINK-5117,1 54172U 22141R   23124.89045902 -.00000228  00000-0  37335-5 0  9997,2 54172  53.2157 351.9360 0001053  87.3145 272.7967 15.08840409 28883,6917.879,95.438,540.473,539.016,0.0
54172.0,STARLINK-5117,PAYLOAD,2023-05-05 21:13:02,15.08837004,0.0001164,53.2163,347.4742,94.8256,265.2869,0.00010352,1.36e-05,0.0,0 STARLINK-5117,1 54172U 22141R   23125.88406061  .00001360  00000-0  10352-3 0  9999,2 54172  53.2163 347.4742 0001164  94.8256 265.2869 15.08837004 29036,6917.89,95.438,540.56,538.949,0.0
54172.0,STARLINK-5117,PAYLOAD,2023-05-06 00:23:48,15.08847181,0.0001204,53.2162,346.8796,95.0889,265.0241,-3.5829e-05,-8.58e-06,0.0,0 STARLINK-5117,1 54172U 22141R   23126.01653643 -.00000858  00000-0 -35829-4 0  9995,2 54172  53.2162 346.8796 0001204  95.0889 265.0241 15.08847181 29058,6917.858,95.437,540.556,538.891,0.0
54172.0,STARLINK-5117,PAYLOAD,2023-05-07 00:14:35,15.08844752,0.0001276,53.2166,342.4189,88.6192,271.4946,0.00011727,1.579e-05,0.0,0 STARLINK-5117,1 54172U 22141R   23127.01013643  .00001579  00000-0  11727-3 0  9995,2 54172  53.2166 342.4189 0001276  88.6192 271.4946 15.08844752 29205,6917.866,95.437,540.614,538.848,0.0
54172.0,STARLINK-5117,PAYLOAD,2023-05-07 20:54:37,15.08835339,0.0001055,53.2168,338.5537,94.1322,265.979,5.065e-05,5.18e-06,0.0,0 STARLINK-5117,1 54172U 22141R   23127.87126868  .00000518  00000-0  50650-4 0  9994,2 54172  53.2168 338.5537 0001055  94.1322 265.9790 15.08835339 29332,6917.895,95.438,540.489,539.03,0.0
54172.0,STARLINK-5117,PAYLOAD,2023-05-08 20:45:23,15.08852098,8.76e-05,53.2153,334.0946,84.8396,275.2696,0.00019708,2.851e-05,0.0,0 STARLINK-5117,1 54172U 22141R   23128.86486005  .00002851  00000-0  19708-3 0  9996,2 54172  53.2153 334.0946 0000876  84.8396 275.2696 15.08852098 29484,6917.843,95.437,540.314,539.102,0.0
54172.0,STARLINK-5117,PAYLOAD,2023-05-09 06:17:42,15.08848907,8.72e-05,53.2152,332.3106,84.1671,275.9421,0.00011601,1.559e-05,0.0,0 STARLINK-5117,1 54172U 22141R   23129.26229875  .00001559  00000-0  11601-3 0  9999,2 54172  53.2152 332.3106 0000872  84.1671 275.9421 15.08848907 29541,6917.853,95.437,540.321,539.115,0.0
54172.0,STARLINK-5117,PAYLOAD,2023-05-10 12:30:03,15.0884068,9.49e-05,53.218,326.6633,98.5828,261.5272,-4.8443e-05,-1.059e-05,0.0,0 STARLINK-5117,1 54172U 22141R   23130.52087328 -.00001059  00000-0 -48443-4 0  9997,2 54172  53.2180 326.6633 0000949  98.5828 261.5272 15.08840680 29737,6917.878,95.438,540.4,539.087,0.0
54172.0,STARLINK-5117,PAYLOAD,2023-05-10 20:26:58,15.08846369,9.57e-05,53.2173,325.1762,95.6739,264.4363,8.8861e-06,-1.46e-06,0.0,0 STARLINK-5117,1 54172U 22141R   23130.85206775 -.00000146  00000-0  88861-5 0  9996,2 54172  53.2173 325.1762 0000957  95.6739 264.4363 15.08846369 29782,6917.861,95.437,540.388,539.064,0.0
54172.0,STARLINK-5117,PAYLOAD,2023-05-11 05:59:17,15.08846684,9.74e-05,53.2168,323.39,85.8766,274.2338,-2.5005e-06,-3.28e-06,0.0,0 STARLINK-5117,1 54172U 22141R   23131.24950714 -.00000328  00000-0 -25005-5 0  9993,2 54172  53.2168 323.3900 0000974  85.8766 274.2338 15.08846684 29848,6917.86,95.437,540.399,539.051,0.0
54172.0,STARLINK-5117,PAYLOAD,2023-05-11 18:42:22,15.08842338,0.0001012,53.2168,321.0111,75.9873,284.1231,0.00016474,2.335e-05,0.0,0 STARLINK-5117,1 54172U 22141R   23131.77942720  .00002335  00000-0  16474-3 0  9995,2 54172  53.2168 321.0111 0001012  75.9873 284.1231 15.08842338 29923,6917.873,95.437,540.438,539.038,0.0
54172.0,STARLINK-5117,PAYLOAD,2023-05-11 20:17:45,15.08843551,8.65e-05,53.2162,320.7142,77.5067,282.6022,0.00014625,2.041e-05,0.0,0 STARLINK-5117,1 54172U 22141R   23131.84566677  .00002041  00000-0  14625-3 0  9996,2 54172  53.2162 320.7142 0000865  77.5067 282.6022 15.08843551 29935,6917.87,95.437,540.333,539.136,0.0
54172.0,STARLINK-5117,PAYLOAD,2023-05-12 18:33:09,15.08848591,0.0001048,53.216,316.551,71.4268,288.6838,-2.4554e-05,-6.79e-06,0.0,0 STARLINK-5117,1 54172U 22141R   23132.77302851 -.00000679  00000-0 -24554-4 0  9991,2 54172  53.2160 316.5510 0001048  71.4268 288.6838 15.08848591 30072,6917.854,95.437,540.444,538.994,0.0
54172.0,STARLINK-5117,PAYLOAD,2023-05-13 05:40:51,15.08838974,0.0001016,53.2161,314.4694,73.516,286.5944,4.4781e-05,4.25e-06,0.0,0 STARLINK-5117,1 54172U 22141R   23133.23671246  .00000425  00000-0  44781-4 0  9991,2 54172  53.2161 314.4694 0001016  73.5160 286.5944 15.08838974 30149,6917.884,95.438,540.451,539.046,0.0
